{
  "type": "FeatureCollection",
  "features": [
    {
      "type": "Feature",
      "properties": {
        "norad_id": 40069,
        "name": "METEOR-M 2",
        "group": "weather",
        "lat": -19.73055879836484,
        "lon": 152.67192762722163,
        "alt_km": 822.1762787213211,
        "timestamp": "2025-12-24T14:43:28.638311+00:00",
        "meta_object_name": "METEOR-M 2",
        "meta_object_id": "2014-037A",
        "meta_epoch": "2025-12-24T07:01:46.968672",
        "meta_mean_motion": 14.21391164,
        "meta_eccentricity": 0.0005584,
        "meta_inclination": 98.4915,
        "meta_ra_of_asc_node": 335.435,
        "meta_arg_of_pericenter": 173.5595,
        "meta_mean_anomaly": 186.5656,
        "meta_ephemeris_type": 0,
        "meta_classification_type": "U",
        "meta_norad_cat_id": 40069,
        "meta_element_set_no": 999,
        "meta_rev_at_epoch": 59447,
        "meta_bstar": 0.00018519553,
        "meta_mean_motion_dot": 3.63e-06,
        "meta_mean_motion_ddot": 0,
        "tle_line1": "1 40069U 14037A   25358.29290473  .00000363  00000+0  18520-3 0  9993",
        "tle_line2": "2 40069  98.4915 335.4350 0005584 173.5595 186.5656 14.21391164594475"
      },
      "geometry": {
        "type": "Point",
        "coordinates": [
          152.67192762722163,
          -19.73055879836484
        ]
      }
    },
    {
      "type": "Feature",
      "properties": {
        "norad_id": 40267,
        "name": "HIMAWARI-8",
        "group": "weather",
        "lat": 0.0044962827991345,
        "lon": 94.92218294677959,
        "alt_km": 35789.34058543583,
        "timestamp": "2025-12-24T14:43:28.638323+00:00",
        "meta_object_name": "HIMAWARI-8",
        "meta_object_id": "2014-060A",
        "meta_epoch": "2025-12-24T00:45:21.695040",
        "meta_mean_motion": 1.00271789,
        "meta_eccentricity": 8.702e-05,
        "meta_inclination": 0.0445,
        "meta_ra_of_asc_node": 206.7562,
        "meta_arg_of_pericenter": 97.9874,
        "meta_mean_anomaly": 300.0776,
        "meta_ephemeris_type": 0,
        "meta_classification_type": "U",
        "meta_norad_cat_id": 40267,
        "meta_element_set_no": 999,
        "meta_rev_at_epoch": 4100,
        "meta_bstar": 0,
        "meta_mean_motion_dot": -2.54e-06,
        "meta_mean_motion_ddot": 0,
        "tle_line1": "1 40267U 14060A   25358.03150110 -.00000254  00000+0  00000+0 0  9994",
        "tle_line2": "2 40267   0.0445 206.7562 0000870  97.9874 300.0776  1.00271789 41004"
      },
      "geometry": {
        "type": "Point",
        "coordinates": [
          94.92218294677959,
          0.0044962827991345
        ]
      }
    },
    {
      "type": "Feature",
      "properties": {
        "norad_id": 40367,
        "name": "FENGYUN 2G",
        "group": "weather",
        "lat": -1.890084426755917,
        "lon": 53.55054862760359,
        "alt_km": 35790.65207881654,
        "timestamp": "2025-12-24T14:43:28.638335+00:00",
        "meta_object_name": "FENGYUN 2G",
        "meta_object_id": "2014-090A",
        "meta_epoch": "2025-12-23T18:44:19.570848",
        "meta_mean_motion": 1.00283037,
        "meta_eccentricity": 0.00017935,
        "meta_inclination": 5.1935,
        "meta_ra_of_asc_node": 74.9603,
        "meta_arg_of_pericenter": 171.7462,
        "meta_mean_anomaly": 226.1214,
        "meta_ephemeris_type": 0,
        "meta_classification_type": "U",
        "meta_norad_cat_id": 40367,
        "meta_element_set_no": 999,
        "meta_rev_at_epoch": 4024,
        "meta_bstar": 0,
        "meta_mean_motion_dot": -2.82e-06,
        "meta_mean_motion_ddot": 0,
        "tle_line1": "1 40367U 14090A   25357.78078207 -.00000282  00000+0  00000+0 0  9996",
        "tle_line2": "2 40367   5.1935  74.9603 0001793 171.7462 226.1214  1.00283037 40244"
      },
      "geometry": {
        "type": "Point",
        "coordinates": [
          53.55054862760359,
          -1.890084426755917
        ]
      }
    },
    {
      "type": "Feature",
      "properties": {
        "norad_id": 40732,
        "name": "METEOSAT-11 (MSG-4)",
        "group": "weather",
        "lat": -2.639965629414505,
        "lon": -36.57696607210765,
        "alt_km": 35787.86111000934,
        "timestamp": "2025-12-24T14:43:28.638347+00:00",
        "meta_object_name": "METEOSAT-11 (MSG-4)",
        "meta_object_id": "2015-034A",
        "meta_epoch": "2025-12-24T00:28:38.654112",
        "meta_mean_motion": 1.00271024,
        "meta_eccentricity": 7.378e-05,
        "meta_inclination": 2.7646,
        "meta_ra_of_asc_node": 71.9713,
        "meta_arg_of_pericenter": 137.1172,
        "meta_mean_anomaly": 260.0587,
        "meta_ephemeris_type": 0,
        "meta_classification_type": "U",
        "meta_norad_cat_id": 40732,
        "meta_element_set_no": 999,
        "meta_rev_at_epoch": 546,
        "meta_bstar": 0,
        "meta_mean_motion_dot": 8.1e-07,
        "meta_mean_motion_ddot": 0,
        "tle_line1": "1 40732U 15034A   25358.01989183  .00000081  00000+0  00000+0 0  9998",
        "tle_line2": "2 40732   2.7646  71.9713 0000737 137.1172 260.0587  1.00271024  5460"
      },
      "geometry": {
        "type": "Point",
        "coordinates": [
          -36.57696607210765,
          -2.639965629414505
        ]
      }
    },
    {
      "type": "Feature",
      "properties": {
        "norad_id": 41105,
        "name": "ELEKTRO-L 2",
        "group": "weather",
        "lat": -4.598314331420824,
        "lon": -60.37252980590622,
        "alt_km": 35772.40030698139,
        "timestamp": "2025-12-24T14:43:28.638360+00:00",
        "meta_object_name": "ELEKTRO-L 2",
        "meta_object_id": "2015-074A",
        "meta_epoch": "2025-12-23T23:20:08.306304",
        "meta_mean_motion": 1.0027219,
        "meta_eccentricity": 0.00035263,
        "meta_inclination": 6.2522,
        "meta_ra_of_asc_node": 72.6944,
        "meta_arg_of_pericenter": 208.9668,
        "meta_mean_anomaly": 146.6578,
        "meta_ephemeris_type": 0,
        "meta_classification_type": "U",
        "meta_norad_cat_id": 41105,
        "meta_element_set_no": 999,
        "meta_rev_at_epoch": 3674,
        "meta_bstar": 0,
        "meta_mean_motion_dot": -9.8e-07,
        "meta_mean_motion_ddot": 0,
        "tle_line1": "1 41105U 15074A   25357.97231836 -.00000098  00000+0  00000+0 0  9995",
        "tle_line2": "2 41105   6.2522  72.6944 0003526 208.9668 146.6578  1.00272190 36746"
      },
      "geometry": {
        "type": "Point",
        "coordinates": [
          -60.37252980590622,
          -4.598314331420824
        ]
      }
    },
    {
      "type": "Feature",
      "properties": {
        "norad_id": 41752,
        "name": "INSAT-3DR",
        "group": "weather",
        "lat": -0.09445212460555803,
        "lon": 28.38493267907618,
        "alt_km": 35813.04032358955,
        "timestamp": "2025-12-24T14:43:28.638372+00:00",
        "meta_object_name": "INSAT-3DR",
        "meta_object_id": "2016-054A",
        "meta_epoch": "2025-12-24T02:10:38.805888",
        "meta_mean_motion": 1.00271423,
        "meta_eccentricity": 0.00142507,
        "meta_inclination": 0.1186,
        "meta_ra_of_asc_node": 86.2454,
        "meta_arg_of_pericenter": 185.6125,
        "meta_mean_anomaly": 287.6641,
        "meta_ephemeris_type": 0,
        "meta_classification_type": "U",
        "meta_norad_cat_id": 41752,
        "meta_element_set_no": 999,
        "meta_rev_at_epoch": 3406,
        "meta_bstar": 0,
        "meta_mean_motion_dot": -5.6e-07,
        "meta_mean_motion_ddot": 0,
        "tle_line1": "1 41752U 16054A   25358.09072692 -.00000056  00000+0  00000+0 0  9993",
        "tle_line2": "2 41752   0.1186  86.2454 0014250 185.6125 287.6641  1.00271423 34063"
      },
      "geometry": {
        "type": "Point",
        "coordinates": [
          28.38493267907618,
          -0.09445212460555803
        ]
      }
    },
    {
      "type": "Feature",
      "properties": {
        "norad_id": 41836,
        "name": "HIMAWARI-9",
        "group": "weather",
        "lat": 0.03450874353596959,
        "lon": 95.04557516551009,
        "alt_km": 35789.79305902536,
        "timestamp": "2025-12-24T14:43:28.638384+00:00",
        "meta_object_name": "HIMAWARI-9",
        "meta_object_id": "2016-064A",
        "meta_epoch": "2025-12-23T22:52:38.784288",
        "meta_mean_motion": 1.00271828,
        "meta_eccentricity": 0.00016373,
        "meta_inclination": 0.0175,
        "meta_ra_of_asc_node": 40.3208,
        "meta_arg_of_pericenter": 292.8784,
        "meta_mean_anomaly": 243.4785,
        "meta_ephemeris_type": 0,
        "meta_classification_type": "U",
        "meta_norad_cat_id": 41836,
        "meta_element_set_no": 999,
        "meta_rev_at_epoch": 3345,
        "meta_bstar": 0,
        "meta_mean_motion_dot": 0,
        "meta_mean_motion_ddot": 0,
        "tle_line1": "1 41836U 16064A   25357.95322667  .00000000  00000+0  00000+0 0  9999",
        "tle_line2": "2 41836   0.0175  40.3208 0001637 292.8784 243.4785  1.00271828 33458"
      },
      "geometry": {
        "type": "Point",
        "coordinates": [
          95.04557516551009,
          0.03450874353596959
        ]
      }
    }
  ]
}